OBJECT_NAME,OBJECT_ID,EPOCH,MEAN_MOTION,ECCENTRICITY,INCLINATION,RA_OF_ASC_NODE,ARG_OF_PERICENTER,MEAN_ANOMALY,EPHEMERIS_TYPE,CLASSIFICATION_TYPE,NORAD_CAT_ID,ELEMENT_SET_NO,REV_AT_EPOCH,BSTAR,MEAN_MOTION_DOT,MEAN_MOTION_DDOT
STARLINK-37687,2026-123R,2026-06-18T22:00:01.999584,15.80873135,.00011017,53.1581,232.5978,72.2236,43.8870,0,U,69368,999,343,.57186172E-4,.10602E-3,0
STARLINK-37631,2026-123S,2026-06-18T22:00:01.999584,15.80843954,.00009542,53.1581,232.6070,107.6817,3.9363,0,U,69369,999,348,.32685774E-3,.64206E-3,0
STARLINK-37673,2026-123T,2026-06-18T22:00:01.999584,15.80856883,.00010034,53.1576,232.6019,85.6222,28.4622,0,U,69370,999,348,.14498905E-3,.27989E-3,0
STARLINK-37645,2026-123U,2026-06-18T22:00:01.999584,15.80852100,.0001051,53.1575,232.6236,66.1037,37.2585,0,U,69371,999,348,.31416812E-3,.61692E-3,0
STARLINK-37688,2026-123V,2026-06-18T22:00:01.999584,15.80839843,.00011475,53.1573,232.5923,85.9858,32.0612,0,U,69372,999,348,.40887149E-3,.80632E-3,0
STARLINK-37685,2026-123W,2026-06-18T22:00:01.999584,15.80872175,.00010948,53.1573,232.5863,74.8947,46.0273,0,U,69373,999,348,.94592186E-4,.18009E-3,0
STARLINK-37632,2026-123X,2026-06-18T22:00:01.999584,15.80854846,.00010163,53.1573,232.5774,72.8763,52.2608,0,U,69374,999,343,.29644499E-3,.58155E-3,0
STARLINK-37454,2026-123Y,2026-06-18T22:00:01.999584,15.80864005,.00010838,53.1572,232.5642,75.2298,56.1584,0,U,69375,999,357,.10748135E-3,.20556E-3,0
STARLINK-37485,2026-123Z,2026-06-18T22:00:01.999584,15.80877928,.00011366,53.1572,232.5557,70.6314,64.9546,0,U,69376,999,357,.4970003E-5,.282E-5,0
STARLINK-37439,2026-123AA,2026-06-18T22:00:01.999584,15.80854021,.0001018,53.1571,232.4706,76.6117,99.5257,0,U,69377,999,343,.16381969E-3,.31724E-3,0
STARLINK-37376,2026-123AB,2026-06-18T22:00:01.999584,15.75261246,.00011537,53.1593,232.5431,82.8330,58.3229,0,U,69378,999,357,-.30988426E-3,-.47918E-3,0
STARLINK-37383,2026-123AC,2026-06-18T22:00:01.999584,15.80858310,.00010494,53.1571,232.4277,79.8114,116.4333,0,U,69379,999,357,.14241765E-3,.2748E-3,0
STARLINK-37411,2026-123AD,2026-06-18T22:00:01.999584,15.80862898,.00011742,53.1571,232.4863,87.1275,81.2723,0,U,69380,999,357,.11666282E-3,.22375E-3,0
STARLINK-37427,2026-123AE,2026-06-18T22:00:01.999584,15.80845772,.00009516,53.1572,232.4377,82.3156,109.4608,0,U,69381,999,348,.24262576E-3,.4739E-3,0
QIANFAN-165,2026-124A,2026-06-18T14:21:18.645408,14.10089926,.0008627,88.9979,1.8804,133.2213,226.9694,0,U,69382,999,201,-.93648E+0,-.1545302E-1,0
QIANFAN-166,2026-124B,2026-06-18T22:43:53.609664,14.17059717,.00027114,88.9984,1.8397,106.5155,253.6332,0,U,69383,999,206,.47602267E-4,.11E-5,0
QIANFAN-167,2026-124C,2026-06-18T22:45:06.162336,14.16526158,.00021044,88.9984,1.8397,153.6812,206.4483,0,U,69384,999,206,.22353894E-4,.59E-6,0
QIANFAN-168,2026-124D,2026-06-18T20:55:42.571200,14.17873075,.00032229,88.9983,1.8470,129.0186,231.1290,0,U,69385,999,205,.33939359E-4,.84E-6,0
QIANFAN-169,2026-124E,2026-06-18T22:33:10.576800,14.18286611,.00033004,88.9983,1.8385,147.1468,212.9927,0,U,69386,999,206,.2868285E-4,.73E-6,0
QIANFAN-170,2026-124F,2026-06-18T22:27:50.481216,14.19183624,.00031632,88.9983,1.8379,123.2539,236.8954,0,U,69387,999,206,.30571871E-4,.78E-6,0
QIANFAN-171,2026-124G,2026-06-18T22:22:02.061984,14.20068421,.00021367,88.9983,1.8371,172.5336,187.5887,0,U,69388,999,206,.17147895E-3,.379E-5,0
QIANFAN-172,2026-124H,2026-06-18T22:24:26.146944,14.19638234,.00025077,88.9984,1.8375,147.4625,212.6720,0,U,69389,999,206,.14700507E-4,.45E-6,0
QIANFAN-173,2026-124J,2026-06-18T22:19:22.376640,14.20509690,.00028531,88.9983,1.8370,137.9837,222.1572,0,U,69390,999,206,.18816396E-4,.55E-6,0
QIANFAN-174,2026-124K,2026-06-18T22:14:22.191936,14.20878005,.00030079,88.9983,1.8365,145.7972,214.3413,0,U,69391,999,206,.12020798E-4,.4E-6,0
QIANFAN-175,2026-124L,2026-06-18T22:13:04.501920,14.21339505,.00034755,88.9983,1.8364,164.3568,195.7731,0,U,69392,999,206,.8412222E-5,.33E-6,0
QIANFAN-176,2026-124M,2026-06-18T22:09:55.143360,14.21840926,.00024124,88.9983,1.8359,165.5520,194.5740,0,U,69393,999,206,.34025206E-4,.89E-6,0
QIANFAN-177,2026-124N,2026-06-18T22:05:46.689792,14.22730269,.00037224,88.9983,1.8356,140.6422,219.5041,0,U,69394,999,206,.24324612E-4,.69E-6,0
QIANFAN-178,2026-124P,2026-06-18T22:07:29.044416,14.22274025,.00029494,88.9983,1.8356,149.3123,210.8241,0,U,69395,999,206,.11499432E-3,.27E-5,0
QIANFAN-179,2026-124Q,2026-06-18T22:03:07.174656,14.23096952,.00029709,88.9983,1.8352,144.5830,215.5560,0,U,69396,999,206,.24577378E-4,.7E-6,0
QIANFAN-180,2026-124R,2026-06-18T22:01:40.864512,14.23618439,.00031394,88.9983,1.8353,157.8307,202.3021,0,U,69397,999,206,.24047144E-4,.69E-6,0
