STARLINK-37687          
1 69368U 26123R   26169.91668981  .00010602  00000+0  57186-4 0  9997
2 69368  53.1581 232.5978 0001101  72.2236  43.8870 15.80873135  3439
STARLINK-37631          
1 69369U 26123S   26169.91668981  .00064206  00000+0  32686-3 0  9994
2 69369  53.1581 232.6070 0000954 107.6817   3.9363 15.80843954  3482
STARLINK-37673          
1 69370U 26123T   26169.91668981  .00027989  00000+0  14499-3 0  9995
2 69370  53.1576 232.6019 0001003  85.6222  28.4622 15.80856883  3487
STARLINK-37645          
1 69371U 26123U   26169.91668981  .00061692  00000+0  31417-3 0  9994
2 69371  53.1575 232.6236 0001051  66.1037  37.2585 15.80852100  3483
STARLINK-37688          
1 69372U 26123V   26169.91668981  .00080632  00000+0  40887-3 0  9991
2 69372  53.1573 232.5923 0001147  85.9858  32.0612 15.80839843  3483
STARLINK-37685          
1 69373U 26123W   26169.91668981  .00018009  00000+0  94592-4 0  9994
2 69373  53.1573 232.5863 0001094  74.8947  46.0273 15.80872175  3487
STARLINK-37632          
1 69374U 26123X   26169.91668981  .00058155  00000+0  29644-3 0  9996
2 69374  53.1573 232.5774 0001016  72.8763  52.2608 15.80854846  3438
STARLINK-37454          
1 69375U 26123Y   26169.91668981  .00020556  00000+0  10748-3 0  9996
2 69375  53.1572 232.5642 0001083  75.2298  56.1584 15.80864005  3575
STARLINK-37485          
1 69376U 26123Z   26169.91668981  .00000282  00000+0  49700-5 0  9993
2 69376  53.1572 232.5557 0001136  70.6314  64.9546 15.80877928  3571
STARLINK-37439          
1 69377U 26123AA  26169.91668981  .00031724  00000+0  16382-3 0  9997
2 69377  53.1571 232.4706 0001018  76.6117  99.5257 15.80854021  3439
STARLINK-37376          
1 69378U 26123AB  26169.91668981 -.00047918  00000+0 -30988-3 0  9990
2 69378  53.1593 232.5431 0001153  82.8330  58.3229 15.75261246  3578
STARLINK-37383          
1 69379U 26123AC  26169.91668981  .00027480  00000+0  14242-3 0  9996
2 69379  53.1571 232.4277 0001049  79.8114 116.4333 15.80858310  3574
STARLINK-37411          
1 69380U 26123AD  26169.91668981  .00022375  00000+0  11666-3 0  9993
2 69380  53.1571 232.4863 0001174  87.1275  81.2723 15.80862898  3574
STARLINK-37427          
1 69381U 26123AE  26169.91668981  .00047390  00000+0  24263-3 0  9995
2 69381  53.1572 232.4377 0000951  82.3156 109.4608 15.80845772  3480
QIANFAN-165             
1 69382U 26124A   26169.59813247 -.01545302  00000+0 -93648+0 0  9996
2 69382  88.9979   1.8804 0008627 133.2213 226.9694 14.10089926  2010
QIANFAN-166             
1 69383U 26124B   26169.94714826  .00000110  00000+0  47602-4 0  9993
2 69383  88.9984   1.8397 0002711 106.5155 253.6332 14.17059717  2063
QIANFAN-167             
1 69384U 26124C   26169.94798799  .00000059  00000+0  22354-4 0  9994
2 69384  88.9984   1.8397 0002104 153.6812 206.4483 14.16526158  2063
QIANFAN-168             
1 69385U 26124D   26169.87202050  .00000084  00000+0  33939-4 0  9996
2 69385  88.9983   1.8470 0003222 129.0186 231.1290 14.17873075  2052
QIANFAN-169             
1 69386U 26124E   26169.93970575  .00000073  00000+0  28683-4 0  9996
2 69386  88.9983   1.8385 0003300 147.1468 212.9927 14.18286611  2069
QIANFAN-170             
1 69387U 26124F   26169.93600094  .00000078  00000+0  30572-4 0  9998
2 69387  88.9983   1.8379 0003163 123.2539 236.8954 14.19183624  2060
QIANFAN-171             
1 69388U 26124G   26169.93196831  .00000379  00000+0  17148-3 0  9995
2 69388  88.9983   1.8371 0002136 172.5336 187.5887 14.20068421  2060
QIANFAN-172             
1 69389U 26124H   26169.93363596  .00000045  00000+0  14701-4 0  9993
2 69389  88.9984   1.8375 0002507 147.4625 212.6720 14.19638234  2069
QIANFAN-173             
1 69390U 26124J   26169.93012010  .00000055  00000+0  18816-4 0  9999
2 69390  88.9983   1.8370 0002853 137.9837 222.1572 14.20509690  2064
QIANFAN-174             
1 69391U 26124K   26169.92664574  .00000040  00000+0  12021-4 0  9993
2 69391  88.9983   1.8365 0003007 145.7972 214.3413 14.20878005  2064
QIANFAN-175             
1 69392U 26124L   26169.92574655  .00000033  00000+0  84122-5 0  9998
2 69392  88.9983   1.8364 0003475 164.3568 195.7731 14.21339505  2064
QIANFAN-176             
1 69393U 26124M   26169.92355490  .00000089  00000+0  34025-4 0  9990
2 69393  88.9983   1.8359 0002412 165.5520 194.5740 14.21840926  2061
QIANFAN-177             
1 69394U 26124N   26169.92067928  .00000069  00000+0  24325-4 0  9997
2 69394  88.9983   1.8356 0003722 140.6422 219.5041 14.22730269  2060
QIANFAN-178             
1 69395U 26124P   26169.92186394  .00000270  00000+0  11499-3 0  9998
2 69395  88.9983   1.8356 0002949 149.3123 210.8241 14.22274025  2064
QIANFAN-179             
1 69396U 26124Q   26169.91883304  .00000070  00000+0  24577-4 0  9993
2 69396  88.9983   1.8352 0002970 144.5830 215.5560 14.23096952  2065
QIANFAN-180             
1 69397U 26124R   26169.91783408  .00000069  00000+0  24047-4 0  9998
2 69397  88.9983   1.8353 0003139 157.8307 202.3021 14.23618439  2067
